      2.10          N: GNSS NAV DATA                        RINEX VERSION / TYPE
fic2rin                                 12/01/2024 00:59:02 PGM / RUN BY / DATE
                                                            END OF HEADER
28 24 11 30  8  0  0.0 -.494375359267D-03 -.112549969344D-10  .000000000000D+00
     .700000000000D+01 -.154375000000D+02  .479234247744D-08  .199112675209D+01
    -.879168510437D-06  .480764429085D-03  .594928860664D-05  .515375992393D+04
     .547200000000D+06  .558793544769D-08  .187249987051D+01  .279396772385D-07
     .960939232096D+00  .266125000000D+03  .141388543352D+01 -.806533595362D-08
    -.465376527657D-09  .100000000000D+01  .234200000000D+04  .000000000000D+00
     .240000000000D+01  .000000000000D+00 -.931322574615D-08  .263000000000D+03
     .540000000000D+06  .400000000000D+01
18 24 11 30  8  0  0.0 -.660595018417D-03  .000000000000D+00  .000000000000D+00
     .205000000000D+03 -.840937500000D+02  .437803950578D-08 -.234353506715D+01
    -.445544719696D-05  .480013736524D-02  .212900340557D-05  .515372479439D+04
     .547200000000D+06 -.279396772385D-07 -.121910409258D+01 -.134110450745D-06
     .974045194789D+00  .349375000000D+03 -.294273939428D+01 -.817926927082D-08
    -.110361739867D-09  .100000000000D+01  .234200000000D+04  .000000000000D+00
     .240000000000D+01  .000000000000D+00 -.838190317154D-08  .205000000000D+03
     .540000000000D+06  .400000000000D+01
11 24 11 30  8  0  0.0 -.751797109842D-03 -.909494701773D-12  .000000000000D+00
     .235000000000D+03 -.900000000000D+02  .464019328268D-08 -.120911873896D+01
    -.458396971226D-05  .176257931162D-02  .157207250595D-05  .515357870293D+04
     .547200000000D+06  .577419996262D-07 -.119160716190D+01  .353902578354D-07
     .965833850239D+00  .351812500000D+03 -.238539980052D+01 -.831748931396D-08
    -.137505727665D-09  .100000000000D+01  .234200000000D+04  .000000000000D+00
     .240000000000D+01  .000000000000D+00 -.884756445885D-08  .747000000000D+03
     .540000000000D+06  .400000000000D+01
14 24 11 30  8  0  0.0  .550459604710D-03  .784439180279D-11  .000000000000D+00
     .144000000000D+03  .800625000000D+02  .445732852277D-08  .232455579851D+01
     .416114926338D-05  .504247646313D-02  .112950801849D-04  .515370618439D+04
     .547200000000D+06 -.132247805595D-06  .297211100620D+01 -.372529029846D-08
     .944973956518D+00  .150750000000D+03 -.285973642876D+01 -.784854120896D-08
    -.326085011321D-09  .100000000000D+01  .234200000000D+04  .000000000000D+00
     .240000000000D+01  .000000000000D+00 -.791624188423D-08  .912000000000D+03
     .540000000000D+06  .400000000000D+01
31 24 11 30  8  0  0.0 -.220859888941D-03  .682121026330D-12  .000000000000D+00
     .146000000000D+03 -.207812500000D+02  .488556064607D-08  .213458202477D+01
    -.134482979774D-05  .107295959024D-01  .651553273201D-05  .515358994675D+04
     .547200000000D+06 -.121071934700D-06  .192576161492D+01 -.135973095894D-06
     .953829129852D+00  .255031250000D+03  .778540723198D+00 -.802854870699D-08
    -.539308178636D-09  .100000000000D+01  .234200000000D+04  .000000000000D+00
     .240000000000D+01  .000000000000D+00 -.130385160446D-07  .146000000000D+03
     .540000000000D+06  .400000000000D+01
23 24 11 30  8  0  0.0  .373801216483D-03  .784439180279D-11  .000000000000D+00
     .212000000000D+03 -.100843750000D+03  .374372736984D-08  .281865714489D+01
    -.520981848240D-05  .494298280682D-02  .104457139969D-04  .515363172722D+04
     .547200000000D+06 -.800937414169D-07 -.217217395771D+00 -.558793544769D-07
     .982276522800D+00  .190750000000D+03 -.289197069341D+01 -.746352517150D-08
     .119290683221D-09  .100000000000D+01  .234200000000D+04  .000000000000D+00
     .240000000000D+01  .000000000000D+00 -.838190317154D-08  .468000000000D+03
     .540000000000D+06  .400000000000D+01
3  24 11 30  7 59 44.0  .613077543676D-03  .932232069317D-11  .000000000000D+00
     .150000000000D+02 -.109281250000D+03  .363372278771D-08  .262404953863D+01
    -.568106770515D-05  .564755313098D-02  .110100954771D-04  .515362436485D+04
     .547184000000D+06 -.223517417908D-07 -.184811122674D+00 -.102445483208D-06
     .987539480309D+00  .177343750000D+03  .115477267966D+01 -.736887837193D-08
     .131076888450D-09  .100000000000D+01  .234200000000D+04  .000000000000D+00
     .240000000000D+01  .000000000000D+00  .139698386192D-08  .150000000000D+02
     .541620000000D+06  .400000000000D+01
30 24 11 30  7 59 44.0 -.271365977824D-03  .795807864051D-11  .000000000000D+00
     .000000000000D+00 -.177812500000D+02  .533986528397D-08  .303733464555D+01
    -.103376805782D-05  .716517365072D-02  .584125518799D-05  .515376178360D+04
     .547184000000D+06  .149011611938D-07  .190127442899D+01 -.838190317154D-07
     .935060796441D+00  .252031250000D+03 -.246090935878D+01 -.818569811004D-08
    -.440018328530D-09  .100000000000D+01  .234200000000D+04  .000000000000D+00
     .240000000000D+01  .000000000000D+00  .372529029846D-08  .000000000000D+00
     .541860000000D+06  .400000000000D+01
16 24 11 30  7 59 44.0 -.115348491818D-03  .966338120634D-11  .000000000000D+00
     .180000000000D+02  .840625000000D+02  .411874299075D-08  .683594462293D+00
     .457838177681D-05  .143022048287D-01  .104755163193D-04  .515366328049D+04
     .547184000000D+06 -.221654772758D-06  .303708600506D+01  .111758708954D-06
     .961063315345D+00  .180250000000D+03  .856015306668D+00 -.785818446778D-08
    -.356086260993D-09  .100000000000D+01  .234200000000D+04  .000000000000D+00
     .240000000000D+01  .000000000000D+00 -.102445483208D-07  .180000000000D+02
     .542160000000D+06  .400000000000D+01
29 24 11 30  7 59 44.0 -.559796579182D-03  .306954461848D-11  .000000000000D+00
     .530000000000D+02  .102218750000D+03  .432089426830D-08 -.400917511161D+00
     .522658228874D-05  .286215392407D-02  .278465449810D-05  .515374415588D+04
     .547184000000D+06  .130385160446D-07 -.221037823597D+01 -.931322574615D-08
     .968675189713D+00  .326343750000D+03  .266429731888D+01 -.821748514838D-08
     .336799743347D-09  .100000000000D+01  .234200000000D+04  .000000000000D+00
     .240000000000D+01  .000000000000D+00 -.977888703346D-08  .530000000000D+02
     .542280000000D+06  .400000000000D+01
3  24 11 30  9 59 44.0  .613144598901D-03  .932232069317D-11  .000000000000D+00
     .790000000000D+02 -.102906250000D+03  .367908181995D-08 -.260900257769D+01
    -.530108809471D-05  .564714241773D-02  .110138207674D-04  .515362511635D+04
     .554384000000D+06  .968575477600D-07 -.184864896616D+00 -.353902578354D-07
     .987540621385D+00  .179656250000D+03  .115484385501D+01 -.741459456191D-08
     .231795369493D-09  .100000000000D+01  .234200000000D+04  .000000000000D+00
     .240000000000D+01  .000000000000D+00  .139698386192D-08  .790000000000D+02
     .547200000000D+06  .400000000000D+01
30 24 11 30  9 59 44.0 -.271308701485D-03  .795807864051D-11  .000000000000D+00
     .100000000000D+01 -.156875000000D+02  .534129391490D-08 -.219570916872D+01
    -.916421413422D-06  .716489809565D-02  .585801899433D-05  .515376230049D+04
     .554384000000D+06  .577419996262D-07  .190121527444D+01 -.614672899246D-07
     .935057681889D+00  .251531250000D+03 -.246091799584D+01 -.820034157714D-08
    -.408231290186D-09  .100000000000D+01  .234200000000D+04  .000000000000D+00
     .240000000000D+01  .000000000000D+00  .372529029846D-08  .100000000000D+01
     .547200000000D+06  .400000000000D+01
29 24 11 30  9 59 44.0 -.559774227440D-03  .306954461848D-11  .000000000000D+00
     .540000000000D+02  .111062500000D+03  .431875132190D-08  .649238354926D+00
     .579655170441D-05  .286058976781D-02  .325217843056D-05  .515374120522D+04
     .554384000000D+06  .372529029846D-07 -.221043738175D+01 -.111758708954D-07
     .968677685451D+00  .319250000000D+03  .266427894171D+01 -.820069873488D-08
     .336799743347D-09  .100000000000D+01  .234200000000D+04  .000000000000D+00
     .240000000000D+01  .000000000000D+00 -.977888703346D-08  .540000000000D+02
     .547200000000D+06  .400000000000D+01
